[{"OBJECT_NAME":"STARLINK-32016","OBJECT_ID":"2024-117F","EPOCH":"2026-03-09T07:12:30.443040","MEAN_MOTION":15.30179748,"ECCENTRICITY":0.00014331,"INCLINATION":53.1622,"RA_OF_ASC_NODE":39.1654,"ARG_OF_PERICENTER":81.2638,"MEAN_ANOMALY":278.8525,"EPHEMERIS_TYPE":0,"CLASSIFICATION_TYPE":"U","NORAD_CAT_ID":60096,"ELEMENT_SET_NO":999,"REV_AT_EPOCH":9682,"BSTAR":-2.2461654e-5,"MEAN_MOTION_DOT":-1.024e-5,"MEAN_MOTION_DDOT":0},{"OBJECT_NAME":"TRANSPORTER-1 OBJECT AA","OBJECT_ID":"2021-006AA","EPOCH":"2026-03-09T22:58:14.761920","MEAN_MOTION":15.29982294,"ECCENTRICITY":0.00086604,"INCLINATION":97.2381,"RA_OF_ASC_NODE":112.457,"ARG_OF_PERICENTER":185.709,"MEAN_ANOMALY":174.4054,"EPHEMERIS_TYPE":0,"CLASSIFICATION_TYPE":"U","NORAD_CAT_ID":47437,"ELEMENT_SET_NO":999,"REV_AT_EPOCH":28414,"BSTAR":0.0002197941,"MEAN_MOTION_DOT":6.312e-5,"MEAN_MOTION_DDOT":0}]
